NORAD_CAT_ID,OBJECT_NAME,OBJECT_TYPE,EPOCH,MEAN_MOTION,ECCENTRICITY,INCLINATION,RA_OF_ASC_NODE,ARG_OF_PERICENTER,MEAN_ANOMALY,BSTAR,MEAN_MOTION_DOT,MEAN_MOTION_DDOT,TLE_LINE0,TLE_LINE1,TLE_LINE2,SEMIMAJOR_AXIS,PERIOD,APOGEE,PERIGEE,DECAYED
54173.0,STARLINK-5242,PAYLOAD,2023-10-31 03:58:18,15.08838066,0.000175,53.2175,266.7412,111.4254,248.6925,0.0004317,6.589e-05,0.0,0 STARLINK-5242,1 54173U 22141S   23304.16549172  .00006589  00000-0  43170-3 0  9993,2 54173  53.2175 266.7412 0001750 111.4254 248.6925 15.08838066 55959,6917.886,95.438,540.962,538.541,0.0
54173.0,STARLINK-5242,PAYLOAD,2023-10-31 15:06:00,15.08839576,0.0001684,53.2174,264.6598,108.8798,251.2377,0.00056901,8.779e-05,0.0,0 STARLINK-5242,1 54173U 22141S   23304.62917391  .00008779  00000-0  56901-3 0  9995,2 54173  53.2174 264.6598 0001684 108.8798 251.2377 15.08839576 56026,6917.882,95.438,540.912,538.582,0.0
54173.0,STARLINK-5242,PAYLOAD,2023-11-01 06:59:51,15.08864774,0.0001643,53.2171,261.6863,104.459,255.6585,0.00095497,0.00014953,0.0,0 STARLINK-5242,1 54173U 22141S   23305.29156631  .00014953  00000-0  95497-3 0  9995,2 54173  53.2171 261.6863 0001643 104.4590 255.6585 15.08864774 56120,6917.805,95.436,540.806,538.533,0.0
54173.0,STARLINK-5242,PAYLOAD,2023-11-01 21:18:19,15.08847211,0.0001619,53.2171,259.01,91.3608,268.757,0.0002542,3.761e-05,0.0,0 STARLINK-5242,1 54173U 22141S   23305.88772892  .00003761  00000-0  25420-3 0  9997,2 54173  53.2171 259.0100 0001619  91.3608 268.7570 15.08847211 56218,6917.858,95.437,540.843,538.603,0.0
54173.0,STARLINK-5242,PAYLOAD,2023-11-02 03:39:52,15.08852344,0.0001506,53.2169,257.8214,88.2796,271.8368,0.00055203,8.511e-05,0.0,0 STARLINK-5242,1 54173U 22141S   23306.15268765  .00008511  00000-0  55203-3 0  9997,2 54173  53.2169 257.8214 0001506  88.2796 271.8368 15.08852344 56252,6917.843,95.437,540.749,538.666,0.0
54173.0,STARLINK-5242,PAYLOAD,2023-11-02 06:50:38,15.08855013,0.0001521,53.2174,257.2261,88.8631,271.2535,0.00069399,0.00010779,0.0,0 STARLINK-5242,1 54173U 22141S   23306.28516678  .00010779  00000-0  69399-3 0  9990,2 54173  53.2174 257.2261 0001521  88.8631 271.2535 15.08855013 56273,6917.835,95.437,540.752,538.647,0.0
54173.0,STARLINK-5242,PAYLOAD,2023-11-02 21:09:06,15.08839665,0.000167,53.2176,254.5474,89.1735,270.9449,0.00056652,8.74e-05,0.0,0 STARLINK-5242,1 54173U 22141S   23306.88133067  .00008740  00000-0  56652-3 0  9996,2 54173  53.2176 254.5474 0001670  89.1735 270.9449 15.08839665 56360,6917.881,95.438,540.902,538.591,0.0
54173.0,STARLINK-5242,PAYLOAD,2023-11-03 03:30:39,15.08858034,0.0001598,53.2175,253.3613,94.9567,265.1607,0.0013944,0.00021985,0.0,0 STARLINK-5242,1 54173U 22141S   23307.14628792  .00021985  00000-0  13944-2 0  9992,2 54173  53.2175 253.3613 0001598  94.9567 265.1607 15.08858034 56405,6917.825,95.436,540.796,538.585,0.0
54173.0,STARLINK-5242,PAYLOAD,2023-11-03 13:02:57,15.08855029,0.0001449,53.217,251.5742,79.7119,280.4037,0.0010106,0.00015839,0.0,0 STARLINK-5242,1 54173U 22141S   23307.54372595  .00015839  00000-0  10106-2 0  9991,2 54173  53.2170 251.5742 0001449  79.7119 280.4037 15.08855029 56466,6917.834,95.437,540.702,538.697,0.0
54173.0,STARLINK-5242,PAYLOAD,2023-11-03 20:59:53,15.08849944,0.0002402,53.2177,250.0909,81.1692,278.9572,0.00083732,0.00013067,0.0,0 STARLINK-5242,1 54173U 22141S   23307.87492999  .00013067  00000-0  83732-3 0  9995,2 54173  53.2177 250.0909 0002402  81.1692 278.9572 15.08849944 56516,6917.85,95.437,541.377,538.053,0.0
54173.0,STARLINK-5242,PAYLOAD,2023-11-04 12:53:45,15.08843312,0.0001437,53.2174,247.1208,92.7599,267.3558,0.00057522,8.879e-05,0.0,0 STARLINK-5242,1 54173U 22141S   23308.53733093  .00008879  00000-0  57522-3 0  9995,2 54173  53.2174 247.1208 0001437  92.7599 267.3558 15.08843312 56613,6917.87,95.437,540.729,538.741,0.0
54173.0,STARLINK-5242,PAYLOAD,2023-11-05 12:44:32,15.08857014,0.0001649,53.2167,242.6566,91.287,268.8311,0.00098032,0.00015355,0.0,0 STARLINK-5242,1 54173U 22141S   23309.53092970  .00015355  00000-0  98032-3 0  9996,2 54173  53.2167 242.6566 0001649  91.2870 268.8311 15.08857014 56766,6917.828,95.436,540.834,538.553,0.0
54173.0,STARLINK-5242,PAYLOAD,2023-11-06 03:02:58,15.08926811,0.0001707,53.2163,239.9825,92.1617,267.957,0.0033714,0.00053907,0.0,0 STARLINK-5242,1 54173U 22141S   23310.12706910  .00053907  00000-0  33714-2 0  9999,2 54173  53.2163 239.9825 0001707  92.1617 267.9570 15.08926811 56852,6917.615,95.432,540.661,538.299,0.0
54173.0,STARLINK-5242,PAYLOAD,2023-11-06 12:35:17,15.08884961,0.000319,53.216,238.1971,78.5925,281.5426,0.00031858,4.792e-05,0.0,0 STARLINK-5242,1 54173U 22141S   23310.52450705  .00004792  00000-0  31858-3 0  9997,2 54173  53.2160 238.1971 0003190  78.5925 281.5426 15.08884961 56918,6917.743,95.435,541.815,537.401,0.0
54173.0,STARLINK-5242,PAYLOAD,2023-11-07 02:53:46,15.08811827,0.0001434,53.216,235.521,86.8384,273.2772,-0.0013837,-0.00022225,0.0,0 STARLINK-5242,1 54173U 22141S   23311.12067317 -.00022225  00000-0 -13837-2 0  9996,2 54173  53.2160 235.5210 0001434  86.8384 273.2772 15.08811827 57009,6917.967,95.439,540.824,538.839,0.0
54173.0,STARLINK-5242,PAYLOAD,2023-11-07 12:26:06,15.08786405,0.0001264,53.2163,233.7368,88.8812,271.2325,0.00096665,0.00015107,0.0,0 STARLINK-5242,1 54173U 22141S   23311.51813061  .00015107  00000-0  96665-3 0  9994,2 54173  53.2163 233.7368 0001264  88.8812 271.2325 15.08786405 57066,6918.044,95.441,540.784,539.035,0.0
54173.0,STARLINK-5242,PAYLOAD,2023-11-08 01:09:12,15.08829043,0.0001205,53.2166,231.3574,89.7908,270.3223,0.0023303,0.00036982,0.0,0 STARLINK-5242,1 54173U 22141S   23312.04806111  .00036982  00000-0  23303-2 0  9993,2 54173  53.2166 231.3574 0001205  89.7908 270.3223 15.08829043 57145,6917.914,95.438,540.612,538.945,0.0
54173.0,STARLINK-5242,PAYLOAD,2023-11-08 21:49:13,15.08856558,0.0001229,53.2176,227.492,89.2056,270.9077,0.0015101,0.00023838,0.0,0 STARLINK-5242,1 54173U 22141S   23312.90918126  .00023838  00000-0  15101-2 0  9991,2 54173  53.2176 227.4920 0001229  89.2056 270.9077 15.08856558 57270,6917.83,95.437,540.545,538.845,0.0
54173.0,STARLINK-5242,PAYLOAD,2023-11-09 00:59:59,15.08859877,0.0001394,53.2179,226.897,89.6037,270.5115,0.0016825,0.00026605,0.0,0 STARLINK-5242,1 54173U 22141S   23313.04165778  .00026605  00000-0  16825-2 0  9993,2 54173  53.2179 226.8970 0001394  89.6037 270.5115 15.08859877 57295,6917.82,95.436,540.649,538.72,0.0
54173.0,STARLINK-5242,PAYLOAD,2023-11-09 04:10:45,15.08862141,0.0001217,53.2171,226.3031,80.8566,279.2564,0.0014065,0.00022181,0.0,0 STARLINK-5242,1 54173U 22141S   23313.17413698  .00022181  00000-0  14065-2 0  9993,2 54173  53.2171 226.3031 0001217  80.8566 279.2564 15.08862141 57319,6917.813,95.436,540.52,538.836,0.0
54173.0,STARLINK-5242,PAYLOAD,2023-11-09 21:40:00,15.08846543,0.0001239,53.2177,223.0309,96.2929,263.8204,0.00091101,0.00014243,0.0,0 STARLINK-5242,1 54173U 22141S   23313.90277928  .00014243  00000-0  91101-3 0  9995,2 54173  53.2177 223.0309 0001239  96.2929 263.8204 15.08846543 57425,6917.86,95.437,540.583,538.868,0.0
54173.0,STARLINK-5242,PAYLOAD,2023-11-10 04:01:32,15.08851501,0.0001375,53.2168,221.8422,91.8605,268.2544,0.00056792,8.765e-05,0.0,0 STARLINK-5242,1 54173U 22141S   23314.16773784  .00008765  00000-0  56792-3 0  9994,2 54173  53.2168 221.8422 0001375  91.8605 268.2544 15.08851501 57460,6917.845,95.437,540.661,538.759,0.0
54173.0,STARLINK-5242,PAYLOAD,2023-11-11 03:52:17,15.08890963,0.0001379,53.2171,217.3813,101.3294,258.7853,0.0011994,0.00018879,0.0,0 STARLINK-5242,1 54173U 22141S   23315.16131632  .00018879  00000-0  11994-2 0  9996,2 54173  53.2171 217.3813 0001379 101.3294 258.7853 15.08890963 57612,6917.725,95.434,540.544,538.636,0.0
54173.0,STARLINK-5242,PAYLOAD,2023-11-11 21:21:32,15.08831114,0.0003725,53.2156,214.1037,144.2628,215.8614,2.628e-06,-2.47e-06,0.0,0 STARLINK-5242,1 54173U 22141S   23315.88996499 -.00000247  00000-0  26280-5 0  9993,2 54173  53.2156 214.1037 0003725 144.2628 215.8614 15.08831114 57726,6917.908,95.438,542.349,537.196,0.0
54173.0,STARLINK-5242,PAYLOAD,2023-11-12 03:43:06,15.08818209,0.0001315,53.217,212.9215,94.6975,265.4168,-0.00050228,-8.268e-05,0.0,0 STARLINK-5242,1 54173U 22141S   23316.15493862 -.00008268  00000-0 -50228-3 0  9999,2 54173  53.2170 212.9215 0001315  94.6975 265.4168 15.08818209 57761,6917.947,95.439,540.722,538.902,0.0
54173.0,STARLINK-5242,PAYLOAD,2023-11-12 10:04:39,15.08823609,0.0001424,53.2172,211.7335,98.5217,261.5937,-0.00023999,-4.104e-05,0.0,0 STARLINK-5242,1 54173U 22141S   23316.41990220 -.00004104  00000-0 -23999-3 0  9998,2 54173  53.2172 211.7335 0001424  98.5217 261.5937 15.08823609 57802,6917.93,95.439,540.781,538.81,0.0
54173.0,STARLINK-5242,PAYLOAD,2023-11-12 21:12:21,15.088349,0.0001287,53.2164,209.6506,92.0805,268.0335,3.5463e-05,2.76e-06,0.0,0 STARLINK-5242,1 54173U 22141S   23316.88358244  .00000276  00000-0  35463-4 0  9997,2 54173  53.2164 209.6506 0001287  92.0805 268.0335 15.08834900 57875,6917.896,95.438,540.651,538.871,0.0
54173.0,STARLINK-5242,PAYLOAD,2023-11-13 01:58:31,15.08836675,0.0001335,53.2164,208.7592,91.0916,269.0229,0.00081351,0.00012682,0.0,0 STARLINK-5242,1 54173U 22141S   23317.08230806  .00012682  00000-0  81351-3 0  9993,2 54173  53.2164 208.7592 0001335  91.0916 269.0229 15.08836675 57904,6917.891,95.438,540.679,538.832,0.0
54173.0,STARLINK-5242,PAYLOAD,2023-11-14 01:49:17,15.08861565,0.0001338,53.2158,204.299,93.7367,266.3778,0.00076699,0.00011947,0.0,0 STARLINK-5242,1 54173U 22141S   23318.07590155  .00011947  00000-0  76699-3 0  9991,2 54173  53.2158 204.2990 0001338  93.7367 266.3778 15.08861565 58054,6917.814,95.436,540.605,538.754,0.0
54173.0,STARLINK-5242,PAYLOAD,2023-11-14 16:07:46,15.08842776,0.0001484,53.2154,201.6223,90.7221,269.3941,0.00017454,2.491e-05,0.0,0 STARLINK-5242,1 54173U 22141S   23318.67206524  .00002491  00000-0  17454-3 0  9999,2 54173  53.2154 201.6223 0001484  90.7221 269.3941 15.08842776 58146,6917.872,95.437,540.764,538.71,0.0
